{"type": "FeatureCollection", "features": [ {"type": "Feature", "properties": {"norad_id": 33492, "name": "GOSAT (IBUKI)", "group": "resource", "lat": -41.9125877715099, "lon": 107.75764058867276, "alt_km": 676.0749775729946, "timestamp": "2025-12-17T21:39:45.365446+00:00", "meta": {"OBJECT_NAME": "GOSAT (IBUKI)", "OBJECT_ID": "2009-002A", "EPOCH": "2025-12-17T13:40:25.403808", "MEAN_MOTION": 14.67535073, "ECCENTRICITY": 9.733e-05, "INCLINATION": 98.0771, "RA_OF_ASC_NODE": 100.1059, "ARG_OF_PERICENTER": 98.3075, "MEAN_ANOMALY": 261.824, "EPHEMERIS_TYPE": 0, "CLASSIFICATION_TYPE": "U", "NORAD_CAT_ID": 33492, "ELEMENT_SET_NO": 999, "REV_AT_EPOCH": 90482, "BSTAR": 0.00013505724, "MEAN_MOTION_DOT": 7.18e-06, "MEAN_MOTION_DDOT": 0}, "tle": {"line1": "1 33492U 09002A   25351.56973847  .00000718  00000+0  13506-3 0  9990", "line2": "2 33492  98.0771 100.1059 0000973  98.3075 261.8240 14.67535073904829"}}, "geometry": {"type": "Point", "coordinates": [107.75764058867276, -41.9125877715099]}}, {"type": "Feature", "properties": {"norad_id": 35681, "name": "DEIMOS-1", "group": "resource", "lat": 6.923392179830242, "lon": -26.792300717609503, "alt_km": 647.752941528187, "timestamp": "2025-12-17T21:39:45.365457+00:00", "meta": {"OBJECT_NAME": "DEIMOS-1", "OBJECT_ID": "2009-041A", "EPOCH": "2025-12-17T14:22:07.864896", "MEAN_MOTION": 14.74959554, "ECCENTRICITY": 0.00026436, "INCLINATION": 97.7141, "RA_OF_ASC_NODE": 151.975, "ARG_OF_PERICENTER": 71.3807, "MEAN_ANOMALY": 288.769, "EPHEMERIS_TYPE": 0, "CLASSIFICATION_TYPE": "U", "NORAD_CAT_ID": 35681, "ELEMENT_SET_NO": 999, "REV_AT_EPOCH": 88011, "BSTAR": 6.1337004e-05, "MEAN_MOTION_DOT": 3.65e-06, "MEAN_MOTION_DDOT": 0}, "tle": {"line1": "1 35681U 09041A   25351.59870214  .00000365  00000+0  61337-4 0  9996", "line2": "2 35681  97.7141 151.9750 0002643  71.3807 288.7690 14.74959554880114"}}, "geometry": {"type": "Point", "coordinates": [-26.792300717609503, 6.923392179830242]}}, {"type": "Feature", "properties": {"norad_id": 35682, "name": "DUBAISAT-1", "group": "resource", "lat": 76.03623997305573, "lon": -23.153624941631946, "alt_km": 645.5248431024429, "timestamp": "2025-12-17T21:39:45.365467+00:00", "meta": {"OBJECT_NAME": "DUBAISAT-1", "OBJECT_ID": "2009-041B", "EPOCH": "2025-12-17T08:10:32.218752", "MEAN_MOTION": 14.74616887, "ECCENTRICITY": 0.00093641, "INCLINATION": 97.9794, "RA_OF_ASC_NODE": 121.9527, "ARG_OF_PERICENTER": 298.1666, "MEAN_ANOMALY": 61.8596, "EPHEMERIS_TYPE": 0, "CLASSIFICATION_TYPE": "U", "NORAD_CAT_ID": 35682, "ELEMENT_SET_NO": 999, "REV_AT_EPOCH": 87829, "BSTAR": 0.00017592633, "MEAN_MOTION_DOT": 1.123e-05, "MEAN_MOTION_DDOT": 0}, "tle": {"line1": "1 35682U 09041B   25351.34065068  .00001123  00000+0  17593-3 0  9990", "line2": "2 35682  97.9794 121.9527 0009364 298.1666  61.8596 14.74616887878299"}}, "geometry": {"type": "Point", "coordinates": [-23.153624941631946, 76.03623997305573]}}, {"type": "Feature", "properties": {"norad_id": 35931, "name": "OCEANSAT-2", "group": "resource", "lat": -32.65677964689397, "lon": -2.70349702530474, "alt_km": 896.0890025930594, "timestamp": "2025-12-17T21:39:45.365477+00:00", "meta": {"OBJECT_NAME": "OCEANSAT-2", "OBJECT_ID": "2009-051A", "EPOCH": "2025-12-17T14:57:25.089984", "MEAN_MOTION": 13.99623645, "ECCENTRICITY": 0.00160867, "INCLINATION": 98.2218, "RA_OF_ASC_NODE": 351.7285, "ARG_OF_PERICENTER": 32.2647, "MEAN_ANOMALY": 327.9501, "EPHEMERIS_TYPE": 0, "CLASSIFICATION_TYPE": "U", "NORAD_CAT_ID": 35931, "ELEMENT_SET_NO": 999, "REV_AT_EPOCH": 85393, "BSTAR": -7.0243645e-05, "MEAN_MOTION_DOT": -1.4e-06, "MEAN_MOTION_DDOT": 0}, "tle": {"line1": "1 35931U 09051A   25351.62320706 -.00000140  00000+0 -70244-4 0  9995", "line2": "2 35931  98.2218 351.7285 0016086  32.2647 327.9501 13.99623645853932"}}, "geometry": {"type": "Point", "coordinates": [-2.70349702530474, -32.65677964689397]}}, {"type": "Feature", "properties": {"norad_id": 35946, "name": "WORLDVIEW-2 (WV-2)", "group": "resource", "lat": 73.51187789701491, "lon": 32.654807529786254, "alt_km": 755.5438279301279, "timestamp": "2025-12-17T21:39:45.365486+00:00", "meta": {"OBJECT_NAME": "WORLDVIEW-2 (WV-2)", "OBJECT_ID": "2009-055A", "EPOCH": "2025-12-17T14:37:49.974816", "MEAN_MOTION": 14.37726098, "ECCENTRICITY": 0.00050291, "INCLINATION": 98.4784, "RA_OF_ASC_NODE": 62.6273, "ARG_OF_PERICENTER": 58.8122, "MEAN_ANOMALY": 301.3557, "EPHEMERIS_TYPE": 0, "CLASSIFICATION_TYPE": "U", "NORAD_CAT_ID": 35946, "ELEMENT_SET_NO": 999, "REV_AT_EPOCH": 84955, "BSTAR": 5.9960652e-05, "MEAN_MOTION_DOT": 1.37e-06, "MEAN_MOTION_DDOT": 0}, "tle": {"line1": "1 35946U 09055A   25351.60960619  .00000137  00000+0  59961-4 0  9993", "line2": "2 35946  98.4784  62.6273 0005029  58.8122 301.3557 14.37726098849559"}}, "geometry": {"type": "Point", "coordinates": [32.654807529786254, 73.51187789701491]}}, {"type": "Feature", "properties": {"norad_id": 36036, "name": "SMOS", "group": "resource", "lat": 30.781127294237596, "lon": 1.947293774727981, "alt_km": 757.3539668709, "timestamp": "2025-12-17T21:39:45.365495+00:00", "meta": {"OBJECT_NAME": "SMOS", "OBJECT_ID": "2009-059A", "EPOCH": "2025-12-17T12:38:04.074720", "MEAN_MOTION": 14.39745469, "ECCENTRICITY": 0.00010941, "INCLINATION": 98.438, "RA_OF_ASC_NODE": 176.504, "ARG_OF_PERICENTER": 82.4304, "MEAN_ANOMALY": 277.7008, "EPHEMERIS_TYPE": 0, "CLASSIFICATION_TYPE": "U", "NORAD_CAT_ID": 36036, "ELEMENT_SET_NO": 999, "REV_AT_EPOCH": 84731, "BSTAR": 0.00012015761, "MEAN_MOTION_DOT": 3.33e-06, "MEAN_MOTION_DDOT": 0}, "tle": {"line1": "1 36036U 09059A   25351.52643605  .00000333  00000+0  12016-3 0  9999", "line2": "2 36036  98.4380 176.5040 0001094  82.4304 277.7008 14.39745469847316"}}, "geometry": {"type": "Point", "coordinates": [1.947293774727981, 30.781127294237596]}}, {"type": "Feature", "properties": {"norad_id": 36110, "name": "YAOGAN-7", "group": "resource", "lat": -40.702640047468996, "lon": -119.38447298418954, "alt_km": 633.6520251512029, "timestamp": "2025-12-17T21:39:45.365505+00:00", "meta": {"OBJECT_NAME": "YAOGAN-7", "OBJECT_ID": "2009-069A", "EPOCH": "2025-12-17T15:20:53.168928", "MEAN_MOTION": 14.77739661, "ECCENTRICITY": 0.00233344, "INCLINATION": 98.0296, "RA_OF_ASC_NODE": 233.3788, "ARG_OF_PERICENTER": 264.5861, "MEAN_ANOMALY": 95.2687, "EPHEMERIS_TYPE": 0, "CLASSIFICATION_TYPE": "U", "NORAD_CAT_ID": 36110, "ELEMENT_SET_NO": 999, "REV_AT_EPOCH": 86281, "BSTAR": 8.0721951e-05, "MEAN_MOTION_DOT": 5.28e-06, "MEAN_MOTION_DDOT": 0}, "tle": {"line1": "1 36110U 09069A   25351.63950427  .00000528  00000+0  80722-4 0  9994", "line2": "2 36110  98.0296 233.3788 0023334 264.5861  95.2687 14.77739661862811"}}, "geometry": {"type": "Point", "coordinates": [-119.38447298418954, -40.702640047468996]}}, {"type": "Feature", "properties": {"norad_id": 36605, "name": "TANDEM-X", "group": "resource", "lat": -71.26993664856158, "lon": 154.52449172870672, "alt_km": 516.9862930876352, "timestamp": "2025-12-17T21:39:45.365514+00:00", "meta": {"OBJECT_NAME": "TANDEM-X", "OBJECT_ID": "2010-030A", "EPOCH": "2025-12-17T14:13:48.411552", "MEAN_MOTION": 15.19149806, "ECCENTRICITY": 0.00018481, "INCLINATION": 97.4443, "RA_OF_ASC_NODE": 356.9023, "ARG_OF_PERICENTER": 79.8054, "MEAN_ANOMALY": 280.3389, "EPHEMERIS_TYPE": 0, "CLASSIFICATION_TYPE": "U", "NORAD_CAT_ID": 36605, "ELEMENT_SET_NO": 999, "REV_AT_EPOCH": 85907, "BSTAR": 4.6537622e-05, "MEAN_MOTION_DOT": 9.1e-06, "MEAN_MOTION_DDOT": 0}, "tle": {"line1": "1 36605U 10030A   25351.59292143  .00000910  00000+0  46538-4 0  9994", "line2": "2 36605  97.4443 356.9023 0001848  79.8054 280.3389 15.19149806859071"}}, "geometry": {"type": "Point", "coordinates": [154.52449172870672, -71.26993664856158]}}, {"type": "Feature", "properties": {"norad_id": 36795, "name": "CARTOSAT-2B", "group": "resource", "lat": -80.39447857459658, "lon": 166.82393906743312, "alt_km": 649.0025896601728, "timestamp": "2025-12-17T21:39:45.365524+00:00", "meta": {"OBJECT_NAME": "CARTOSAT-2B", "OBJECT_ID": "2010-035A", "EPOCH": "2025-12-17T15:35:56.226048", "MEAN_MOTION": 14.7873274, "ECCENTRICITY": 0.00129215, "INCLINATION": 97.7853, "RA_OF_ASC_NODE": 40.521, "ARG_OF_PERICENTER": 61.8931, "MEAN_ANOMALY": 298.3585, "EPHEMERIS_TYPE": 0, "CLASSIFICATION_TYPE": "U", "NORAD_CAT_ID": 36795, "ELEMENT_SET_NO": 999, "REV_AT_EPOCH": 83302, "BSTAR": 0.00011548663, "MEAN_MOTION_DOT": 7.99e-06, "MEAN_MOTION_DDOT": 0}, "tle": {"line1": "1 36795U 10035A   25351.64995632  .00000799  00000+0  11549-3 0  9996", "line2": "2 36795  97.7853  40.5210 0012921  61.8931 298.3585 14.78732740833025"}}, "geometry": {"type": "Point", "coordinates": [166.82393906743312, -80.39447857459658]}}, {"type": "Feature", "properties": {"norad_id": 36834, "name": "YAOGAN-10", "group": "resource", "lat": 81.15517433681381, "lon": -104.94460564361202, "alt_km": 606.3887298888376, "timestamp": "2025-12-17T21:39:45.365534+00:00", "meta": {"OBJECT_NAME": "YAOGAN-10", "OBJECT_ID": "2010-038A", "EPOCH": "2025-12-17T15:25:40.681344", "MEAN_MOTION": 14.84626004, "ECCENTRICITY": 0.00013763, "INCLINATION": 97.9139, "RA_OF_ASC_NODE": 11.4272, "ARG_OF_PERICENTER": 80.5958, "MEAN_ANOMALY": 65.7779, "EPHEMERIS_TYPE": 0, "CLASSIFICATION_TYPE": "U", "NORAD_CAT_ID": 36834, "ELEMENT_SET_NO": 999, "REV_AT_EPOCH": 83026, "BSTAR": 0.00020726474, "MEAN_MOTION_DOT": 1.698e-05, "MEAN_MOTION_DDOT": 0}, "tle": {"line1": "1 36834U 10038A   25351.64283196  .00001698  00000+0  20726-3 0  9994", "line2": "2 36834  97.9139  11.4272 0001376  80.5958  65.7779 14.84626004830268"}}, "geometry": {"type": "Point", "coordinates": [-104.94460564361202, 81.15517433681381]}}]}